GOES 8                  
1 23051U 94022A   24124.43963250  .00000023  00000+0  00000+0 0  9996
2 23051  13.7649  19.3598 0006477  45.7768 180.5416  0.98904336116464
